FLOCK 4G-33             
1 62685U 25009CE  26201.76329359  .00003552  00000+0  14164-3 0  9991
2 62685  97.3937 281.2555 0005150 193.1542 166.9563 15.25835848 83928
FLOCK 4H-1              
1 66704U 25276AQ  26201.73844719  .00003908  00000+0  17990-3 0  9997
2 66704  97.4162 274.8987 0002572 159.3878 200.7462 15.20890895 35530
FLOCK 4H-2              
1 66705U 25276AR  26201.44802932  .00003680  00000+0  16828-3 0  9993
2 66705  97.4157 274.6632 0001977 148.9503 211.1850 15.21161037 35499
FLOCK 4H-3              
1 66706U 25276AS  26201.83601189  .00004285  00000+0  20048-3 0  9999
2 66706  97.4226 274.9677 0002939 220.4503 139.6514 15.20284369 35533
FLOCK 4H-4              
1 66707U 25276AT  26201.93867961  .00004733  00000+0  22237-3 0  9993
2 66707  97.4209 274.9327 0003555 225.9566 134.1377 15.20079041 35548
FLOCK 4H-5              
1 66708U 25276AU  26201.73052303  .00003649  00000+0  16794-3 0  9994
2 66708  97.4158 274.9126 0001647 136.7966 223.3399 15.20941927 35537
FLOCK 4H-6              
1 66709U 25276AV  26201.71177536  .00003809  00000+0  17670-3 0  9991
2 66709  97.4211 274.9389 0003066 184.2753 175.8456 15.20643495 35521
FLOCK 4H-7              
1 66710U 25276AW  26201.76018643  .00004098  00000+0  19112-3 0  9995
2 66710  97.4169 274.7391 0000877 235.7237 124.3915 15.20420517 35529
FLOCK 4H-8              
1 66711U 25276AX  26201.94811042  .00004962  00000+0  22995-3 0  9993
2 66711  97.4206 275.0775 0002187 234.4210 125.6821 15.20531913 35551
FLOCK 4H-9              
1 66712U 25276AY  26201.76339151  .00004377  00000+0  20148-3 0  9998
2 66712  97.4198 274.9922 0003002 190.6521 169.4651 15.20831417 35536
FLOCK 4H-10             
1 66713U 25276AZ  26201.85644974  .00004370  00000+0  20482-3 0  9995
2 66713  97.4174 274.7863 0003340 226.3003 133.7956 15.20206088 35532
FLOCK 4H-11             
1 66714U 25276BA  26201.73832928  .00008574  00000+0  36304-3 0  9991
2 66714  97.4181 275.2902 0001940 213.7676 146.3437 15.23413446 35558
FLOCK 4H-12             
1 66715U 25276BB  26201.75034288  .00004506  00000+0  20715-3 0  9997
2 66715  97.4172 274.9134 0002543 166.6491 193.4812 15.20858493 35847
FLOCK 4H-13             
1 66716U 25276BC  26201.72058246  .00003431  00000+0  15805-3 0  9995
2 66716  97.4206 275.0610 0002252 135.8940 224.2476 15.20957174 35532
FLOCK 4H-14             
1 66717U 25276BD  26201.74518286  .00004254  00000+0  19265-3 0  9991
2 66717  97.4188 275.1343 0002191 136.6804 223.4605 15.21407206 34795
FLOCK 4H-15             
1 66718U 25276BE  26201.75979160  .00004041  00000+0  19120-3 0  9999
2 66718  97.4202 274.6957 0002883 243.2188 116.8752 15.19922654 35511
