{"fetched_at":"2026-07-21T07:06:30.167Z","source":"https://celestrak.org/NORAD/elements/gp.php?GROUP=planet&FORMAT=JSON","constellation":"superdove","records":[{"OBJECT_NAME":"FLOCK 4G-33","OBJECT_ID":"2025-009CE","EPOCH":"2026-07-20T18:19:08.566176","CLASSIFICATION_TYPE":"U","MEAN_MOTION":15.25835848,"ECCENTRICITY":0.00051503,"INCLINATION":97.3937,"RA_OF_ASC_NODE":281.2555,"ARG_OF_PERICENTER":193.1542,"MEAN_ANOMALY":166.9563,"EPHEMERIS_TYPE":0,"NORAD_CAT_ID":62685,"ELEMENT_SET_NO":999,"REV_AT_EPOCH":8392,"BSTAR":0.00014163612,"MEAN_MOTION_DOT":0.00003552,"MEAN_MOTION_DDOT":0},{"OBJECT_NAME":"FLOCK 4H-1","OBJECT_ID":"2025-276AQ","EPOCH":"2026-07-20T17:43:21.837216","CLASSIFICATION_TYPE":"U","MEAN_MOTION":15.20890895,"ECCENTRICITY":0.00025727,"INCLINATION":97.4162,"RA_OF_ASC_NODE":274.8987,"ARG_OF_PERICENTER":159.3878,"MEAN_ANOMALY":200.7462,"EPHEMERIS_TYPE":0,"NORAD_CAT_ID":66704,"ELEMENT_SET_NO":999,"REV_AT_EPOCH":3553,"BSTAR":0.00017990458,"MEAN_MOTION_DOT":0.00003908,"MEAN_MOTION_DDOT":0},{"OBJECT_NAME":"FLOCK 4H-2","OBJECT_ID":"2025-276AR","EPOCH":"2026-07-20T10:45:09.733248","CLASSIFICATION_TYPE":"U","MEAN_MOTION":15.21161037,"ECCENTRICITY":0.00019773,"INCLINATION":97.4157,"RA_OF_ASC_NODE":274.6632,"ARG_OF_PERICENTER":148.9503,"MEAN_ANOMALY":211.185,"EPHEMERIS_TYPE":0,"NORAD_CAT_ID":66705,"ELEMENT_SET_NO":999,"REV_AT_EPOCH":3549,"BSTAR":0.00016828055,"MEAN_MOTION_DOT":0.0000368,"MEAN_MOTION_DDOT":0},{"OBJECT_NAME":"FLOCK 4H-3","OBJECT_ID":"2025-276AS","EPOCH":"2026-07-20T20:03:51.427296","CLASSIFICATION_TYPE":"U","MEAN_MOTION":15.20284369,"ECCENTRICITY":0.00029392,"INCLINATION":97.4226,"RA_OF_ASC_NODE":274.9677,"ARG_OF_PERICENTER":220.4503,"MEAN_ANOMALY":139.6514,"EPHEMERIS_TYPE":0,"NORAD_CAT_ID":66706,"ELEMENT_SET_NO":999,"REV_AT_EPOCH":3553,"BSTAR":0.00020047547,"MEAN_MOTION_DOT":0.00004285,"MEAN_MOTION_DDOT":0},{"OBJECT_NAME":"FLOCK 4H-4","OBJECT_ID":"2025-276AT","EPOCH":"2026-07-20T22:31:41.918304","CLASSIFICATION_TYPE":"U","MEAN_MOTION":15.20079041,"ECCENTRICITY":0.00035554,"INCLINATION":97.4209,"RA_OF_ASC_NODE":274.9327,"ARG_OF_PERICENTER":225.9566,"MEAN_ANOMALY":134.1377,"EPHEMERIS_TYPE":0,"NORAD_CAT_ID":66707,"ELEMENT_SET_NO":999,"REV_AT_EPOCH":3554,"BSTAR":0.00022236527,"MEAN_MOTION_DOT":0.00004733,"MEAN_MOTION_DDOT":0},{"OBJECT_NAME":"FLOCK 4H-5","OBJECT_ID":"2025-276AU","EPOCH":"2026-07-20T17:31:57.189792","CLASSIFICATION_TYPE":"U","MEAN_MOTION":15.20941927,"ECCENTRICITY":0.00016475,"INCLINATION":97.4158,"RA_OF_ASC_NODE":274.9126,"ARG_OF_PERICENTER":136.7966,"MEAN_ANOMALY":223.3399,"EPHEMERIS_TYPE":0,"NORAD_CAT_ID":66708,"ELEMENT_SET_NO":999,"REV_AT_EPOCH":3553,"BSTAR":0.00016793902,"MEAN_MOTION_DOT":0.00003649,"MEAN_MOTION_DDOT":0},{"OBJECT_NAME":"FLOCK 4H-6","OBJECT_ID":"2025-276AV","EPOCH":"2026-07-20T17:04:57.391104","CLASSIFICATION_TYPE":"U","MEAN_MOTION":15.20643495,"ECCENTRICITY":0.00030665,"INCLINATION":97.4211,"RA_OF_ASC_NODE":274.9389,"ARG_OF_PERICENTER":184.2753,"MEAN_ANOMALY":175.8456,"EPHEMERIS_TYPE":0,"NORAD_CAT_ID":66709,"ELEMENT_SET_NO":999,"REV_AT_EPOCH":3552,"BSTAR":0.00017669799,"MEAN_MOTION_DOT":0.00003809,"MEAN_MOTION_DDOT":0},{"OBJECT_NAME":"FLOCK 4H-7","OBJECT_ID":"2025-276AW","EPOCH":"2026-07-20T18:14:40.107552","CLASSIFICATION_TYPE":"U","MEAN_MOTION":15.20420517,"ECCENTRICITY":0.00008772,"INCLINATION":97.4169,"RA_OF_ASC_NODE":274.7391,"ARG_OF_PERICENTER":235.7237,"MEAN_ANOMALY":124.3915,"EPHEMERIS_TYPE":0,"NORAD_CAT_ID":66710,"ELEMENT_SET_NO":999,"REV_AT_EPOCH":3552,"BSTAR":0.00019111596,"MEAN_MOTION_DOT":0.00004098,"MEAN_MOTION_DDOT":0},{"OBJECT_NAME":"FLOCK 4H-8","OBJECT_ID":"2025-276AX","EPOCH":"2026-07-20T22:45:16.740288","CLASSIFICATION_TYPE":"U","MEAN_MOTION":15.20531913,"ECCENTRICITY":0.00021875,"INCLINATION":97.4206,"RA_OF_ASC_NODE":275.0775,"ARG_OF_PERICENTER":234.421,"MEAN_ANOMALY":125.6821,"EPHEMERIS_TYPE":0,"NORAD_CAT_ID":66711,"ELEMENT_SET_NO":999,"REV_AT_EPOCH":3555,"BSTAR":0.0002299535,"MEAN_MOTION_DOT":0.00004962,"MEAN_MOTION_DDOT":0},{"OBJECT_NAME":"FLOCK 4H-9","OBJECT_ID":"2025-276AY","EPOCH":"2026-07-20T18:19:17.026464","CLASSIFICATION_TYPE":"U","MEAN_MOTION":15.20831417,"ECCENTRICITY":0.00030022,"INCLINATION":97.4198,"RA_OF_ASC_NODE":274.9922,"ARG_OF_PERICENTER":190.6521,"MEAN_ANOMALY":169.4651,"EPHEMERIS_TYPE":0,"NORAD_CAT_ID":66712,"ELEMENT_SET_NO":999,"REV_AT_EPOCH":3553,"BSTAR":0.00020148273,"MEAN_MOTION_DOT":0.00004377,"MEAN_MOTION_DDOT":0},{"OBJECT_NAME":"FLOCK 4H-10","OBJECT_ID":"2025-276AZ","EPOCH":"2026-07-20T20:33:17.257536","CLASSIFICATION_TYPE":"U","MEAN_MOTION":15.20206088,"ECCENTRICITY":0.00033401,"INCLINATION":97.4174,"RA_OF_ASC_NODE":274.7863,"ARG_OF_PERICENTER":226.3003,"MEAN_ANOMALY":133.7956,"EPHEMERIS_TYPE":0,"NORAD_CAT_ID":66713,"ELEMENT_SET_NO":999,"REV_AT_EPOCH":3553,"BSTAR":0.00020482259,"MEAN_MOTION_DOT":0.0000437,"MEAN_MOTION_DDOT":0},{"OBJECT_NAME":"FLOCK 4H-11","OBJECT_ID":"2025-276BA","EPOCH":"2026-07-20T17:43:11.649792","CLASSIFICATION_TYPE":"U","MEAN_MOTION":15.23413446,"ECCENTRICITY":0.00019402,"INCLINATION":97.4181,"RA_OF_ASC_NODE":275.2902,"ARG_OF_PERICENTER":213.7676,"MEAN_ANOMALY":146.3437,"EPHEMERIS_TYPE":0,"NORAD_CAT_ID":66714,"ELEMENT_SET_NO":999,"REV_AT_EPOCH":3555,"BSTAR":0.00036303532,"MEAN_MOTION_DOT":0.00008574,"MEAN_MOTION_DDOT":0},{"OBJECT_NAME":"FLOCK 4H-12","OBJECT_ID":"2025-276BB","EPOCH":"2026-07-20T18:00:29.624832","CLASSIFICATION_TYPE":"U","MEAN_MOTION":15.20858493,"ECCENTRICITY":0.00025436,"INCLINATION":97.4172,"RA_OF_ASC_NODE":274.9134,"ARG_OF_PERICENTER":166.6491,"MEAN_ANOMALY":193.4812,"EPHEMERIS_TYPE":0,"NORAD_CAT_ID":66715,"ELEMENT_SET_NO":999,"REV_AT_EPOCH":3584,"BSTAR":0.0002071528,"MEAN_MOTION_DOT":0.00004506,"MEAN_MOTION_DDOT":0},{"OBJECT_NAME":"FLOCK 4H-13","OBJECT_ID":"2025-276BC","EPOCH":"2026-07-20T17:17:38.324544","CLASSIFICATION_TYPE":"U","MEAN_MOTION":15.20957174,"ECCENTRICITY":0.00022526,"INCLINATION":97.4206,"RA_OF_ASC_NODE":275.061,"ARG_OF_PERICENTER":135.894,"MEAN_ANOMALY":224.2476,"EPHEMERIS_TYPE":0,"NORAD_CAT_ID":66716,"ELEMENT_SET_NO":999,"REV_AT_EPOCH":3553,"BSTAR":0.00015804559,"MEAN_MOTION_DOT":0.00003431,"MEAN_MOTION_DDOT":0},{"OBJECT_NAME":"FLOCK 4H-14","OBJECT_ID":"2025-276BD","EPOCH":"2026-07-20T17:53:03.799104","CLASSIFICATION_TYPE":"U","MEAN_MOTION":15.21407206,"ECCENTRICITY":0.00021912,"INCLINATION":97.4188,"RA_OF_ASC_NODE":275.1343,"ARG_OF_PERICENTER":136.6804,"MEAN_ANOMALY":223.4605,"EPHEMERIS_TYPE":0,"NORAD_CAT_ID":66717,"ELEMENT_SET_NO":999,"REV_AT_EPOCH":3479,"BSTAR":0.00019265421,"MEAN_MOTION_DOT":0.00004254,"MEAN_MOTION_DDOT":0},{"OBJECT_NAME":"FLOCK 4H-15","OBJECT_ID":"2025-276BE","EPOCH":"2026-07-20T18:14:05.994240","CLASSIFICATION_TYPE":"U","MEAN_MOTION":15.19922654,"ECCENTRICITY":0.00028838,"INCLINATION":97.4202,"RA_OF_ASC_NODE":274.6957,"ARG_OF_PERICENTER":243.2188,"MEAN_ANOMALY":116.8752,"EPHEMERIS_TYPE":0,"NORAD_CAT_ID":66718,"ELEMENT_SET_NO":999,"REV_AT_EPOCH":3551,"BSTAR":0.00019119615,"MEAN_MOTION_DOT":0.00004041,"MEAN_MOTION_DDOT":0}]}
